[
    {
        "OBJECT_NAME": "NAVSTAR 16 (USA 47)",
        "OBJECT_ID": "1989-085A",
        "EPOCH": "2025-03-01T01:07:38.550144",
        "MEAN_MOTION": 1.89426214,
        "ECCENTRICITY": 0.0009182,
        "INCLINATION": 54.0017,
        "RA_OF_ASC_NODE": 200.3385,
        "ARG_OF_PERICENTER": 70.0729,
        "MEAN_ANOMALY": 114.8499,
        "EPHEMERIS_TYPE": 0,
        "CLASSIFICATION_TYPE": "U",
        "NORAD_CAT_ID": 20302,
        "ELEMENT_SET_NO": 999,
        "REV_AT_EPOCH": 24957,
        "BSTAR": 0,
        "MEAN_MOTION_DOT": 3.6e-07,
        "MEAN_MOTION_DDOT": 0
    },
    {
        "OBJECT_NAME": "NAVSTAR 17 (USA 49)",
        "OBJECT_ID": "1989-097A",
        "EPOCH": "2025-02-28T12:31:45.808608",
        "MEAN_MOTION": 1.89175211,
        "ECCENTRICITY": 0.002464,
        "INCLINATION": 56.1728,
        "RA_OF_ASC_NODE": 27.3988,
        "ARG_OF_PERICENTER": 312.8528,
        "MEAN_ANOMALY": 147.9052,
        "EPHEMERIS_TYPE": 0,
        "CLASSIFICATION_TYPE": "U",
        "NORAD_CAT_ID": 20361,
        "ELEMENT_SET_NO": 999,
        "REV_AT_EPOCH": 24039,
        "BSTAR": 0,
        "MEAN_MOTION_DOT": -5.9e-07,
        "MEAN_MOTION_DDOT": 0
    },
    {
        "OBJECT_NAME": "NAVSTAR 18 (USA 50)",
        "OBJECT_ID": "1990-008A",
        "EPOCH": "2025-03-02T05:43:26.876064",
        "MEAN_MOTION": 1.89597757,
        "ECCENTRICITY": 0.0015178,
        "INCLINATION": 54.7727,
        "RA_OF_ASC_NODE": 150.1524,
        "ARG_OF_PERICENTER": 274.1828,
        "MEAN_ANOMALY": 82.6169,
        "EPHEMERIS_TYPE": 0,
        "CLASSIFICATION_TYPE": "U",
        "NORAD_CAT_ID": 20452,
        "ELEMENT_SET_NO": 999,
        "REV_AT_EPOCH": 24729,
        "BSTAR": 0,
        "MEAN_MOTION_DOT": 3e-07,
        "MEAN_MOTION_DDOT": 0
    },
    {
        "OBJECT_NAME": "NAVSTAR 19 (USA 54)",
        "OBJECT_ID": "1990-025A",
        "EPOCH": "2025-03-01T09:02:56.497920",
        "MEAN_MOTION": 1.91039085,
        "ECCENTRICITY": 0.0043043,
        "INCLINATION": 53.7725,
        "RA_OF_ASC_NODE": 263.1371,
        "ARG_OF_PERICENTER": 218.123,
        "MEAN_ANOMALY": 353.8125,
        "EPHEMERIS_TYPE": 0,
        "CLASSIFICATION_TYPE": "U",
        "NORAD_CAT_ID": 20533,
        "ELEMENT_SET_NO": 999,
        "REV_AT_EPOCH": 24598,
        "BSTAR": 0,
        "MEAN_MOTION_DOT": 3.5e-07,
        "MEAN_MOTION_DDOT": 0
    },
    {
        "OBJECT_NAME": "NAVSTAR 21 (USA 64)",
        "OBJECT_ID": "1990-088A",
        "EPOCH": "2025-02-28T14:19:04.867104",
        "MEAN_MOTION": 1.87752294,
        "ECCENTRICITY": 0.0024517,
        "INCLINATION": 56.2623,
        "RA_OF_ASC_NODE": 25.9354,
        "ARG_OF_PERICENTER": 284.5845,
        "MEAN_ANOMALY": 189.4181,
        "EPHEMERIS_TYPE": 0,
        "CLASSIFICATION_TYPE": "U",
        "NORAD_CAT_ID": 20830,
        "ELEMENT_SET_NO": 999,
        "REV_AT_EPOCH": 24391,
        "BSTAR": 0,
        "MEAN_MOTION_DOT": -6.2e-07,
        "MEAN_MOTION_DDOT": 0
    },
    {
        "OBJECT_NAME": "NAVSTAR 22 (USA 66)",
        "OBJECT_ID": "1990-103A",
        "EPOCH": "2025-03-02T05:31:47.121600",
        "MEAN_MOTION": 1.88155311,
        "ECCENTRICITY": 0.002079,
        "INCLINATION": 55.7784,
        "RA_OF_ASC_NODE": 67.8577,
        "ARG_OF_PERICENTER": 82.2288,
        "MEAN_ANOMALY": 278.0403,
        "EPHEMERIS_TYPE": 0,
        "CLASSIFICATION_TYPE": "U",
        "NORAD_CAT_ID": 20959,
        "ELEMENT_SET_NO": 999,
        "REV_AT_EPOCH": 24698,
        "BSTAR": 0,
        "MEAN_MOTION_DOT": -5e-08,
        "MEAN_MOTION_DDOT": 0
    },
    {
        "OBJECT_NAME": "NAVSTAR 24 (USA 79)",
        "OBJECT_ID": "1992-009A",
        "EPOCH": "2025-02-24T12:26:14.906976",
        "MEAN_MOTION": 1.91828653,
        "ECCENTRICITY": 0.0050997,
        "INCLINATION": 54.2186,
        "RA_OF_ASC_NODE": 183.5206,
        "ARG_OF_PERICENTER": 54.2852,
        "MEAN_ANOMALY": 327.6352,
        "EPHEMERIS_TYPE": 0,
        "CLASSIFICATION_TYPE": "U",
        "NORAD_CAT_ID": 21890,
        "ELEMENT_SET_NO": 999,
        "REV_AT_EPOCH": 23693,
        "BSTAR": 0,
        "MEAN_MOTION_DOT": 1.4e-07,
        "MEAN_MOTION_DDOT": 0
    },
    {
        "OBJECT_NAME": "NAVSTAR 25 (USA 80)",
        "OBJECT_ID": "1992-019A",
        "EPOCH": "2025-02-27T09:31:00.889248",
        "MEAN_MOTION": 1.87660786,
        "ECCENTRICITY": 0.0030799,
        "INCLINATION": 55.3318,
        "RA_OF_ASC_NODE": 321.7598,
        "ARG_OF_PERICENTER": 335.3186,
        "MEAN_ANOMALY": 136.0934,
        "EPHEMERIS_TYPE": 0,
        "CLASSIFICATION_TYPE": "U",
        "NORAD_CAT_ID": 21930,
        "ELEMENT_SET_NO": 999,
        "REV_AT_EPOCH": 23254,
        "BSTAR": 0,
        "MEAN_MOTION_DOT": -4.8e-07,
        "MEAN_MOTION_DDOT": 0
    },
    {
        "OBJECT_NAME": "NAVSTAR 26 (USA 83)",
        "OBJECT_ID": "1992-039A",
        "EPOCH": "2025-02-27T21:38:03.725664",
        "MEAN_MOTION": 1.87911897,
        "ECCENTRICITY": 0.0005731,
        "INCLINATION": 55.3797,
        "RA_OF_ASC_NODE": 135.7826,
        "ARG_OF_PERICENTER": 276.1836,
        "MEAN_ANOMALY": 83.814,
        "EPHEMERIS_TYPE": 0,
        "CLASSIFICATION_TYPE": "U",
        "NORAD_CAT_ID": 22014,
        "ELEMENT_SET_NO": 999,
        "REV_AT_EPOCH": 6634,
        "BSTAR": 0,
        "MEAN_MOTION_DOT": 3.4e-07,
        "MEAN_MOTION_DDOT": 0
    },
    {
        "OBJECT_NAME": "NAVSTAR 27 (USA 84)",
        "OBJECT_ID": "1992-058A",
        "EPOCH": "2025-03-02T09:11:53.478240",
        "MEAN_MOTION": 1.87561312,
        "ECCENTRICITY": 0.0016645,
        "INCLINATION": 54.6606,
        "RA_OF_ASC_NODE": 182.9266,
        "ARG_OF_PERICENTER": 40.0694,
        "MEAN_ANOMALY": 320.0297,
        "EPHEMERIS_TYPE": 0,
        "CLASSIFICATION_TYPE": "U",
        "NORAD_CAT_ID": 22108,
        "ELEMENT_SET_NO": 999,
        "REV_AT_EPOCH": 23417,
        "BSTAR": 0,
        "MEAN_MOTION_DOT": 3.7e-07,
        "MEAN_MOTION_DDOT": 0
    }
]